NUSANTARA SATU          
1 44048U 19009A   22095.49285557 -.00000238  00000+0  00000+0 0  9994
2 44048   0.0176 162.2984 0001949 208.3952 146.4959  1.00270324 11380
CHINASAT 6C (ZX 6C)     
1 44067U 19012A   22095.61442591 -.00000356  00000+0  00000+0 0  9997
2 44067   0.0462 104.5593 0004706 178.8256 256.7325  1.00273483 11354
WGS 10 (USA 291)        
1 44071U 19014A   22095.34771615  .00000044  00000+0  00000+0 0  9999
2 44071   0.0130 198.1442 0000027  62.5095 118.4191  1.00271058 11244
TIANLIAN 2-01           
1 44076U 19017A   22095.55352639 -.00000138  00000+0  00000+0 0  9996
2 44076   0.4060 283.0093 0030098 224.1002 325.8890  1.00269116 11237
ARABSAT-6A              
1 44186U 19021A   22095.24729240  .00000151  00000+0  00000+0 0  9999
2 44186   0.0569 347.1697 0002227 352.9352 332.9445  1.00280591 10775
BEIDOU-3 IGSO-1         
1 44204U 19023A   22095.65403931 -.00000209  00000+0  00000+0 0  9998
2 44204  56.4553  53.7515 0020003 205.3863 289.4935  1.00279747 10987
BEIDOU-2 G8             
1 44231U 19027A   22095.55705163 -.00000249  00000+0  00000+0 0  9997
2 44231   0.6910  72.5914 0004284 140.5877 325.6608  1.00276025 10699
YAMAL 601               
1 44307U 19031A   22095.63692279  .00000117  00000+0  00000+0 0  9991
2 44307   0.0044 186.3137 0002251 179.7602 106.1148  1.00272442 10553
AT&T T-16               
1 44333U 19034A   22095.50820948 -.00000117  00000+0  00000+0 0  9996
2 44333   0.0235 265.0140 0000720 341.9206  28.9366  1.00270513 10252
EUTELSAT 7C             
1 44334U 19034B   22094.38452299  .00000043  00000+0  00000+0 0  9999
2 44334   0.0425 245.4418 0003195 112.2315 340.4203  1.00271811 10718
BEIDOU-3 IGSO-2         
1 44337U 19035A   22095.61876618 -.00000124  00000+0  00000+0 0  9996
2 44337  55.1125 172.3752 0022992 193.6897 169.7785  1.00275268 10326
COSMOS 2539             
1 44457U 19048A   22095.38434818  .00000079  00000+0  00000+0 0  9997
2 44457   0.0346 125.4183 0000123 119.8784  98.7381  1.00274322  9845
EDRS-C                  
1 44475U 19049A   22094.37821603  .00000150  00000+0  00000+0 0  9998
2 44475   0.0727 264.9632 0000834 132.3147 322.7189  1.00273348  9818
INTELSAT 39 (IS-39)     
1 44476U 19049B   22095.54771698  .00000031  00000+0  00000+0 0  9995
2 44476   0.0173 232.4185 0000877 329.4276 251.0855  1.00271382  9760
AMOS-17                 
1 44479U 19050A   22095.37896737  .00000106  00000+0  00000+0 0  9996
2 44479   0.0229 109.6543 0001830 266.7997 330.6024  1.00273177  9802
AEHF-5 (USA 292)        
1 44481U 19051A   22095.55118878  .00000078  00000+0  00000+0 0  9991
2 44481   4.5451 304.7569 0002994  87.7297  54.2549  1.00270826  9891
EUTELSAT 5 WEST B       
1 44624U 19067A   22095.38374404 -.00000045  00000+0  00000+0 0  9992
2 44624   0.0672  18.7217 0004972  64.7832 243.2802  1.00272245  9064
MEV-1                   
1 44625U 19067B   22094.04840969 -.00000207  00000+0  00000+0 0  9999
2 44625   0.0179 121.8149 0000786 246.1256 174.3337  1.00272357  7588
TJS-4                   
1 44637U 19070A   22095.52063385 -.00000172  00000+0  00000+0 0  9990
2 44637   0.0478  17.7150 0004993  25.5680  61.4258  1.00270659  9181
BEIDOU-3 IGSO-3         
1 44709U 19073A   22095.58905278 -.00000164  00000+0  00000+0 0  9996
2 44709  57.3812 297.1342 0021113 172.6925  55.6154  1.00278051  9076
TIBA-1                  
1 44800U 19080A   22095.36785326  .00000153  00000+0  00000+0 0  9999
2 44800   0.0599 358.8620 0001654  12.5303 350.1882  1.00275396  8674
INMARSAT GX5            
1 44801U 19080B   22095.38452178  .00000072  00000+0  00000+0 0  9998
2 44801   0.0512   1.8479 0001944  11.0239 330.1931  1.00271478  8716
JCSAT-18 (KACIFIC 1)    
1 44868U 19091A   22094.44715083 -.00000206  00000+0  00000+0 0  9996
2 44868   0.0387  46.8495 0000245 285.2251 171.6103  1.00272371  8631
ELEKTRO-L 3             
1 44903U 19095A   22095.52618824 -.00000100  00000+0  00000+0 0  9998
2 44903   0.0568  81.2974 0000986 295.7777  82.1635  1.00272527  8345
SHIJIAN-20 (SJ-20)      
1 44910U 19097A   22095.58724934 -.00000208  00000+0  00000+0 0  9993
2 44910   0.9857  92.5030 0009246 321.0945  79.1330  1.00269436  8320
TJS-5                   
1 44978U 20002A   22095.60683319 -.00000345  00000+0  00000+0 0  9991
2 44978   0.1882  86.7971 0001827 131.8447 301.1981  1.00273067  8318
GSAT-30                 
1 45026U 20005A   22095.52063385 -.00000168  00000+0  00000+0 0  9998
2 45026   0.0267 133.8423 0003319 306.0383  24.3392  1.00272711  8144
EUTELSAT KONNECT        
1 45027U 20005B   22094.38452299  .00000045  00000+0  00000+0 0  9991
2 45027   0.0551  91.8867 0000286 253.6186 352.8013  1.00271878  8922
JCSAT-17                
1 45245U 20013A   22094.04595055 -.00000326  00000+0  00000+0 0  9996
2 45245   6.2271 345.0284 0003734  19.1231 340.7495  1.00270632  7842
GEO-KOMPSAT-2B          
1 45246U 20013B   22095.45327260 -.00000347  00000+0  00000+0 0  9997
2 45246   0.0380 338.2117 0001582 331.1242 175.8248  1.00272888  7908
BEIDOU-3 G2             
1 45344U 20017A   22095.40075157 -.00000145  00000+0  00000+0 0  9996
2 45344   2.1200 348.4927 0003057  80.0987 349.3801  1.00272684  7882
AEHF-6 (USA 298)        
1 45465U 20022B   22095.49285557 -.00000306  00000+0  00000+0 0  9991
2 45465   6.1177 303.4558 0049662   2.2600 203.1990  1.00270361  7633
BEIDOU-3 G3             
1 45807U 20040A   22095.55033583 -.00000357  00000+0  00000+0 0  9994
2 45807   1.6090 301.4385 0007166 345.2949 215.7200  1.00268187  6705
APSTAR 6D               
1 45863U 20045A   22095.48326510 -.00000321  00000+0  00000+0 0  9999
2 45863   0.0484  94.5694 0003067 306.0579 101.1231  1.00271339  6480
KOREASAT 116            
1 45920U 20048A   22095.50396556 -.00000365  00000+0  00000+0 0  9994
2 45920   0.0275 272.0819 0000605  95.8184 123.4952  1.00270156  6263
EXPRESS 103             
1 45985U 20053A   22095.19453475 -.00000284  00000+0  00000+0 0  9990
2 45985   0.0280 300.9167 0000378 171.4418 247.6379  1.00269527  6278
EXPRESS 80              
1 45986U 20053B   22090.95145265 -.00000151  00000+0  00000+0 0  9998
2 45986   0.0197 297.0906 0000721 301.8560  12.8365  1.00270699  6215
BSAT-4B                 
1 46112U 20056A   22095.58054514 -.00000353  00000+0  00000+0 0  9997
2 46112   0.0843 108.9927 0001986 334.5648  69.1186  1.00272542  6015
MEV-2                   
1 46113U 20056B   22094.38000221 -.00000015  00000+0  00000+0 0  9996
2 46113   0.0134 245.9648 0000960 133.1605 309.3567  1.00273121 65154
GALAXY 30 (G-30)        
1 46114U 20056C   22095.50332525  .00000034  00000+0  00000+0 0  9997
2 46114   0.0188 176.8673 0001851 204.5261 228.5679  1.00272134  5912
GAOFEN 13               
1 46610U 20071A   22095.62355353 -.00000365  00000+0  00000+0 0  9990
2 46610   0.6764 271.4830 0004360 247.4355  17.2500  1.00268997  5530
TIANTONG-1 2            
1 46916U 20082A   22095.55321403 -.00000361  00000+0  00000+0 0  9998
2 46916   4.3041 296.0048 0003314 115.7929 106.1289  1.00275105  5265
LUCAS (JDRS-1)          
1 47202U 20089A   22095.52063385 -.00000239  00000+0  00000+0 0  9997
2 47202   0.0057 225.6967 0002672 145.0994 101.1832  1.00274113  5049
SXM-7                   
1 47240U 20096A   22095.57706627 -.00000025  00000+0  00000+0 0  9998
2 47240   0.0162 190.6199 0002226   8.7684  86.9049  1.00270955  4951
CMS-01                  
1 47256U 20099A   22095.52063385 -.00000167  00000+0  00000+0 0  9997
2 47256   0.0592 100.7865 0005781 187.0124 176.3780  1.00270422  4827
TURKSAT 5A              
1 47306U 21001A   22095.37341021  .00000151  00000+0  00000+0 0  9998
2 47306   0.0246 116.2165 0000193 166.8419  75.9250  1.00271875  4614
TIANTONG-1 3            
1 47321U 21003A   22095.61631443 -.00000159  00000+0  00000+0 0  9993
2 47321   4.5889 308.3451 0003898  56.6209 132.2677  1.00270246  4591
TJS-6                   
1 47613U 21010A   22095.49210628  .00000040  00000+0  00000+0 0  9997
2 47613   0.0429  33.4689 0001404   2.5100 153.3725  1.00273290  4451
SBIRS GEO-5 (USA 315)   
1 48618U 21042A   22095.38452178  .00000040  00000+0  00000+0 0  9994
2 48618   7.4708 326.5126 0005162 212.4694 161.5801  1.00273519  3386
FENGYUN 4B              
1 48808U 21047A   22095.61180323 -.00000324  00000+0  00000+0 0  9992
2 48808   0.2159 284.2799 0000743 282.3431 337.3503  1.00425623  3195
SXM-8                   
1 48838U 21049A   22095.51134934 -.00000208  00000+0  00000+0 0  9994
2 48838   0.0269 294.9289 0000743  12.2607 345.4714  1.00273402  3230
TIANLIAN 1-05           
1 49011U 21063A   22095.31510337  .00000067  00000+0  00000+0 0  9999
2 49011   2.3511 283.9898 0003111  87.3062 306.3336  1.00273807  2709
STAR ONE D2             
1 49055U 21069A   22094.65874111 -.00000268  00000+0  00000+0 0  9996
2 49055   0.0298 182.5130 0000915 211.0375 326.4553  1.00269438  2539
EUTELSAT QUANTUM        
1 49056U 21069B   22095.63539066  .00000124  00000+0  00000+0 0  9993
2 49056   0.0143 166.7406 0001549 217.4131  86.1630  1.00272406  2549
CHINASAT 2E (ZX 2E)     
1 49062U 21071A   22095.61962872 -.00000294  00000+0  00000+0 0  9995
2 49062   0.0345 313.5995 0001575 100.3238 101.0797  1.00270112  2679
TJS-7                   
1 49115U 21077A   22095.59824190 -.00000235  00000+0  00000+0 0  9992
2 49115   0.4895 271.8839 0002403  28.4112 255.3504  1.00267475  2438
CHINASAT 9B             
1 49125U 21080A   22095.33324475 -.00000316  00000+0  00000+0 0  9990
2 49125   0.0074 196.1941 0001832 186.3634  32.4125  1.00273264  2251
SHIJIAN-21 (SJ-21)      
1 49330U 21094A   22095.52549341  .00000021  00000+0  00000+0 0  9997
2 49330   8.3227  50.4402 0110273  12.0526  10.2782  1.00436126  1888
QZS-1R                  
1 49336U 21096A   22095.34170490 -.00000245  00000+0  00000+0 0  9999
2 49336  34.3226 102.9690 0750143 269.7271  78.6519  1.00285449  1637
